COMMENT,ORIGINATOR,NORAD_CAT_ID,OBJECT_NAME,OBJECT_TYPE,CLASSIFICATION_TYPE,INTLDES,EPOCH,EPOCH_MICROSECONDS,MEAN_MOTION,ECCENTRICITY,INCLINATION,RA_OF_ASC_NODE,ARG_OF_PERICENTER,MEAN_ANOMALY,EPHEMERIS_TYPE,ELEMENT_SET_NO,REV_AT_EPOCH,BSTAR,MEAN_MOTION_DOT,MEAN_MOTION_DDOT,FILE,TLE_LINE0,TLE_LINE1,TLE_LINE2,OBJECT_ID,OBJECT_NUMBER,SEMIMAJOR_AXIS,PERIOD,APOGEE,PERIGEE,DECAYED
GENERATED VIA SPACETRACK.ORG API,18 SPCS,57309,STARLINK-30163,PAYLOAD,U,23096V,2024-10-01 02:47:57,937056,15.03062432,0.0001654,43.0006,193.0603,184.6923,175.3904,0,999,6777,0.003171,0.00043504,0,4510709,0 STARLINK-30163,1 57309U 23096V   24275.11664279  .00043504  00000-0  31710-2 0  9990,2 57309  43.0006 193.0603 0001654 184.6923 175.3904 15.03062432 67772,2023-096V,57309,6935.597,95.804,558.609,556.314,1
GENERATED VIA SPACETRACK.ORG API,18 SPCS,57309,STARLINK-30163,PAYLOAD,U,23096V,2024-10-01 02:47:57,937056,15.03062432,0.0001654,43.0006,193.0603,184.6923,175.3904,0,999,6780,0.003171,0.00043504,0,4511209,0 STARLINK-30163,1 57309U 23096V   24275.11664279  .00043504  00000-0  31710-2 0  9990,2 57309  43.0006 193.0603 0001654 184.6923 175.3904 15.03062432 67806,2023-096V,57309,6935.597,95.804,558.609,556.314,1
GENERATED VIA SPACETRACK.ORG API,18 SPCS,57309,STARLINK-30163,PAYLOAD,U,23096V,2024-10-02 04:19:01,625088,15.03157242,0.0001928,43.0018,187.2773,194.4071,165.6717,0,999,6793,0.0032705,0.00044999,0,4511598,0 STARLINK-30163,1 57309U 23096V   24276.17987992  .00044999  00000-0  32705-2 0  9991,2 57309  43.0018 187.2773 0001928 194.4071 165.6717 15.03157242 67931,2023-096V,57309,6935.305,95.798,558.507,555.833,1
GENERATED VIA SPACETRACK.ORG API,18 SPCS,57309,STARLINK-30163,PAYLOAD,U,23096V,2024-10-02 04:19:01,625088,15.03157242,0.0001928,43.0018,187.2773,194.4071,165.6717,0,999,6796,0.0032705,0.00044999,0,4512136,0 STARLINK-30163,1 57309U 23096V   24276.17987992  .00044999  00000-0  32705-2 0  9991,2 57309  43.0018 187.2773 0001928 194.4071 165.6717 15.03157242 67964,2023-096V,57309,6935.305,95.798,558.507,555.833,1
GENERATED VIA SPACETRACK.ORG API,18 SPCS,57309,STARLINK-30163,PAYLOAD,U,23096V,2024-10-03 04:14:18,464640,15.03247991,0.0002165,43.001,181.8564,199.6753,160.4007,0,999,6811,0.003198,0.00044098,0,4512888,0 STARLINK-30163,1 57309U 23096V   24277.17660260  .00044098  00000-0  31980-2 0  9992,2 57309  43.0010 181.8564 0002165 199.6753 160.4007 15.03247991 68116,2023-096V,57309,6935.026,95.793,558.392,555.389,1
GENERATED VIA SPACETRACK.ORG API,18 SPCS,57309,STARLINK-30163,PAYLOAD,U,23096V,2024-10-04 02:33:49,453632,15.03341704,0.0002386,43.0012,176.7956,206.029,154.0433,0,999,6822,0.0040178,0.00055687,0,4513629,0 STARLINK-30163,1 57309U 23096V   24278.10682238  .00055687  00000-0  40178-2 0  9990,2 57309  43.0012 176.7956 0002386 206.0290 154.0433 15.03341704 68221,2023-096V,57309,6934.738,95.787,558.257,554.948,1
GENERATED VIA SPACETRACK.ORG API,18 SPCS,57309,STARLINK-30163,PAYLOAD,U,23096V,2024-10-04 10:32:12,165216,15.03369154,0.0002476,43.0013,174.988,208.2668,151.804,0,999,6830,0.003477,0.00048147,0,4514132,0 STARLINK-30163,1 57309U 23096V   24278.43902969  .00048147  00000-0  34770-2 0  9996,2 57309  43.0013 174.9880 0002476 208.2668 151.8040 15.03369154 68308,2023-096V,57309,6934.653,95.785,558.235,554.801,1
GENERATED VIA SPACETRACK.ORG API,18 SPCS,57309,STARLINK-30163,PAYLOAD,U,23096V,2024-10-04 10:32:12,165216,15.03369154,0.0002476,43.0013,174.988,208.2668,151.804,0,999,6827,0.003477,0.00048147,0,4514226,0 STARLINK-30163,1 57309U 23096V   24278.43902969  .00048147  00000-0  34770-2 0  9996,2 57309  43.0013 174.9880 0002476 208.2668 151.8040 15.03369154 68274,2023-096V,57309,6934.653,95.785,558.235,554.801,1
GENERATED VIA SPACETRACK.ORG API,18 SPCS,57309,STARLINK-30163,PAYLOAD,U,23096V,2024-10-05 00:53:15,630144,15.03429457,0.0002485,43.0014,171.7347,210.9923,149.0773,0,999,6839,0.0038511,0.00053476,0,4515143,0 STARLINK-30163,1 57309U 23096V   24279.03698646  .00053476  00000-0  38511-2 0  9995,2 57309  43.0014 171.7347 0002485 210.9923 149.0773 15.03429457 68390,2023-096V,57309,6934.468,95.781,558.056,554.610,1
GENERATED VIA SPACETRACK.ORG API,18 SPCS,57309,STARLINK-30163,PAYLOAD,U,23096V,2024-10-06 00:48:17,130240,15.03515443,0.000279,43.0006,166.3119,217.8558,142.2089,0,999,6851,0.0033953,0.00047189,0,4515575,0 STARLINK-30163,1 57309U 23096V   24280.03353160  .00047189  00000-0  33953-2 0  9995,2 57309  43.0006 166.3119 0002790 217.8558 142.2089 15.03515443 68517,2023-096V,57309,6934.203,95.776,558.003,554.134,1
GENERATED VIA SPACETRACK.ORG API,18 SPCS,57309,STARLINK-30163,PAYLOAD,U,23096V,2024-10-06 08:46:36,557760,15.03537434,0.0002876,43.0005,164.5042,219.7832,140.28,0,999,6859,0.0027974,0.0003882,0,4516175,0 STARLINK-30163,1 57309U 23096V   24280.36570090  .00038820  00000-0  27974-2 0  9992,2 57309  43.0005 164.5042 0002876 219.7832 140.2800 15.03537434 68593,2023-096V,57309,6934.136,95.774,557.995,554.007,1
GENERATED VIA SPACETRACK.ORG API,18 SPCS,57309,STARLINK-30163,PAYLOAD,U,23096V,2024-10-06 08:46:36,557760,15.03537434,0.0002876,43.0005,164.5042,219.7832,140.28,0,999,6856,0.0027974,0.0003882,0,4516334,0 STARLINK-30163,1 57309U 23096V   24280.36570090  .00038820  00000-0  27974-2 0  9992,2 57309  43.0005 164.5042 0002876 219.7832 140.2800 15.03537434 68560,2023-096V,57309,6934.136,95.774,557.995,554.007,1
GENERATED VIA SPACETRACK.ORG API,18 SPCS,57309,STARLINK-30163,PAYLOAD,U,23096V,2024-10-07 08:41:32,297568,15.03616325,0.0002991,43.0001,159.0804,223.9395,136.121,0,999,6874,0.0033488,0.00046663,0,4517222,0 STARLINK-30163,1 57309U 23096V   24281.36217937  .00046663  00000-0  33488-2 0  9992,2 57309  43.0001 159.0804 0002991 223.9395 136.1210 15.03616325 68746,2023-096V,57309,6933.893,95.769,557.832,553.684,1
GENERATED VIA SPACETRACK.ORG API,18 SPCS,57309,STARLINK-30163,PAYLOAD,U,23096V,2024-10-08 00:38:06,993312,15.03660946,0.0003139,43.0002,155.4648,227.2933,132.7646,0,999,6881,0.0027206,0.00037868,0,4517716,0 STARLINK-30163,1 57309U 23096V   24282.02646983  .00037868  00000-0  27206-2 0  9991,2 57309  43.0002 155.4648 0003139 227.2933 132.7646 15.03660946 68814,2023-096V,57309,6933.756,95.766,557.798,553.445,1
GENERATED VIA SPACETRACK.ORG API,18 SPCS,57309,STARLINK-30163,PAYLOAD,U,23096V,2024-10-08 08:36:23,393376,15.03742968,0.0003174,43.0009,153.6561,231.0699,128.9861,0,999,6886,0.0077902,0.00110186,0,4518223,0 STARLINK-30163,1 57309U 23096V   24282.35860409  .00110186  00000-0  77902-2 0  9991,2 57309  43.0009 153.6561 0003174 231.0699 128.9861 15.03742968 68862,2023-096V,57309,6933.504,95.761,557.570,553.168,1
GENERATED VIA SPACETRACK.ORG API,18 SPCS,57309,STARLINK-30163,PAYLOAD,U,23096V,2024-10-08 08:36:23,393376,15.03742968,0.0003174,43.0009,153.6561,231.0699,128.9861,0,999,6889,0.0077902,0.00110186,0,4518461,0 STARLINK-30163,1 57309U 23096V   24282.35860409  .00110186  00000-0  77902-2 0  9991,2 57309  43.0009 153.6561 0003174 231.0699 128.9861 15.03742968 68895,2023-096V,57309,6933.504,95.761,557.570,553.168,1
GENERATED VIA SPACETRACK.ORG API,18 SPCS,57309,STARLINK-30163,PAYLOAD,U,23096V,2024-10-08 14:59:00,414240,15.03732203,0.0003174,43.0001,152.2104,229.5549,130.5017,0,999,6890,0.0048042,0.0006744,0,4518639,0 STARLINK-30163,1 57309U 23096V   24282.62431035  .00067440  00000-0  48042-2 0  9997,2 57309  43.0001 152.2104 0003174 229.5549 130.5017 15.03732203 68906,2023-096V,57309,6933.537,95.762,557.603,553.201,1
GENERATED VIA SPACETRACK.ORG API,18 SPCS,57309,STARLINK-30163,PAYLOAD,U,23096V,2024-10-08 19:45:58,18752,15.03718729,0.0003243,43.0007,151.1251,230.7384,129.3171,0,999,6896,0.0023737,0.00033042,0,4518921,0 STARLINK-30163,1 57309U 23096V   24282.82358818  .00033042  00000-0  23737-2 0  9991,2 57309  43.0007 151.1251 0003243 230.7384 129.3171 15.03718729 68961,2023-096V,57309,6933.578,95.763,557.692,553.195,1
GENERATED VIA SPACETRACK.ORG API,18 SPCS,57309,STARLINK-30163,PAYLOAD,U,23096V,2024-10-09 00:32:56,862240,15.03649454,0.0002922,43,150.0405,234.1546,125.9025,0,999,6896,-0.0018763,-0.00026219,0,4519050,0 STARLINK-30163,1 57309U 23096V   24283.02288035 -.00026219  00000-0 -18763-2 0  9990,2 57309  43.0000 150.0405 0002922 234.1546 125.9025 15.03649454 68962,2023-096V,57309,6933.791,95.767,557.682,553.630,1
GENERATED VIA SPACETRACK.ORG API,18 SPCS,57309,STARLINK-30163,PAYLOAD,U,23096V,2024-10-09 00:32:56,862240,15.03649454,0.0002922,43,150.0405,234.1546,125.9025,0,999,6899,-0.0018763,-0.00026219,0,4519698,0 STARLINK-30163,1 57309U 23096V   24283.02288035 -.00026219  00000-0 -18763-2 0  9990,2 57309  43.0000 150.0405 0002922 234.1546 125.9025 15.03649454 68995,2023-096V,57309,6933.791,95.767,557.682,553.630,1
GENERATED VIA SPACETRACK.ORG API,18 SPCS,57309,STARLINK-30163,PAYLOAD,U,23096V,2024-10-09 21:17:14,760096,15.02142414,0.0002217,43.0004,145.3437,235.8573,124.2059,0,999,6909,-0.04429,-0.00554217,0,4519788,0 STARLINK-30163,1 57309U 23096V   24283.88697639 -.00554217  00000-0 -44290-1 0  9995,2 57309  43.0004 145.3437 0002217 235.8573 124.2059 15.02142414 69090,2023-096V,57309,6938.428,95.863,561.832,558.755,1
GENERATED VIA SPACETRACK.ORG API,18 SPCS,57309,STARLINK-30163,PAYLOAD,U,23096V,2024-10-09 21:17:14,760096,15.02142414,0.0002217,43.0004,145.3437,235.8573,124.2059,0,999,6912,-0.04429,-0.00554217,0,4519993,0 STARLINK-30163,1 57309U 23096V   24283.88697639 -.00554217  00000-0 -44290-1 0  9995,2 57309  43.0004 145.3437 0002217 235.8573 124.2059 15.02142414 69124,2023-096V,57309,6938.428,95.863,561.832,558.755,1
GENERATED VIA SPACETRACK.ORG API,18 SPCS,57309,STARLINK-30163,PAYLOAD,U,23096V,2024-10-10 06:00:00,999648,15.01750686,0.0001253,43.001,143.3727,269.0404,255.865,0,999,6915,-0.0037776,-0.00049827,0,4520171,0 STARLINK-30163,1 57309U 23096V   24284.25001157 -.00049827  00000-0 -37776-2 0  9999,2 57309  43.0010 143.3727 0001253 269.0404 255.8650 15.01750686 69158,2023-096V,57309,6939.635,95.888,562.369,560.630,1
